id,full_name,a,e,i,om,w,q,ad,per_y,data_arc,condition_code,n_obs_used,n_del_obs_used,n_dop_obs_used,H
a0000010,"    10 Hygiea",3.14391529716374,.1140558191698366,3.832190197134019,283.3358264459519,311.8217676947241,2.78533346254515,3.502497131782331,5.57460958923546,59732,0,2840,,,5.43
a0000024,"    24 Themis",3.136106936521681,.1256687130049861,.7521883029072399,35.92028326987861,106.836160514623,2.741996413962992,3.530217459080371,5.55385448638203,59319,0,2309,,,7.08
a0000031,"    31 Euphrosyne",3.155978440143127,.2216588309516034,26.30334724109455,31.12565299271397,61.45725796907618,2.456427948592536,3.855528931693717,5.60672485235704,56617,0,1569,,,6.74
a0000034,"    34 Circe",2.687884854748732,.1046393829962418,5.498707218619867,184.4217836246291,330.5534008280672,2.406626241982882,2.969143467514582,4.40680864341161,55411,0,2117,,,8.51
a0000035,"    35 Leukothea",2.993356893911458,.2264357664345414,7.936752901281084,353.7497007065609,213.2352437787261,2.315553831426498,3.671159956396417,5.17900049675097,56985,0,2106,,,8.50
a0000036,"    36 Atalante",2.748933269393624,.3020037230499809,18.42628099866847,358.4132948257451,47.00958407140966,1.918745187620793,3.579121351166454,4.55779196470958,54827,0,1144,,,8.46
a0000038,"    38 Leda",2.738482386025726,.15553737884468,6.972077801362603,295.7387387556496,169.4981457262895,2.312546013690959,3.164418758360493,4.53182499162058,58487,0,1608,,,8.32
a0000041,"    41 Daphne",2.759558463245825,.2756317747520636,15.79654517056545,178.0932361079813,45.97060799448724,1.998936466489301,3.520180460002349,4.58424269148482,54669,0,1968,,,7.12
a0000047,"    47 Aglaja",2.880938208641669,.1321454956790165,4.983281376608534,3.118131896179197,313.9981645102872,2.500235201040098,3.26164121624324,4.89000290907778,57003,0,1841,,,7.84
a0000054,"    54 Alexandra",2.709748818969456,.1982673215708073,11.8016600087926,313.3327100800242,345.1897813185626,2.172494178502724,3.247003459436189,4.46068705428166,55665,0,1583,,,7.66
a0000058,"    58 Concordia",2.699571932996302,.04325515708781669,5.065763447933159,161.1220397926041,29.93355334884104,2.582801524964686,2.816342341027918,4.43558145023663,55554,0,2138,,,8.86
a0000066,"    66 Maja",2.648227375451733,.1713058537204728,3.047182946975346,7.523959105161653,44.15628861093877,2.194570524054047,3.101884226849419,4.30964113921521,56591,0,1945,,,9.36
a0000070,"    70 Panopaea",2.614540513438438,.1820290654347702,11.59104476137175,47.73519413857777,255.3867380471751,2.138618147235895,3.090462879640981,4.22767180874657,54604,0,1495,,,8.11
a0000074,"    74 Galatea",2.778009467593675,.2398278299401522,4.077714208048638,197.2716346308413,174.1393585184698,2.111765485427486,3.444253449759863,4.63029631509523,55548,0,1944,,,8.66
a0000078,"    78 Diana",2.619494655800448,.2078962042793539,8.704153757467711,333.4179401181834,152.9826069654141,2.074911659729482,3.164077651871414,4.23969365716766,55860,0,1665,,,8.09
a0000081,"    81 Terpsichore",2.857732574411058,.2083461011930901,7.805404853221422,.9872742113640715,51.83239005332251,2.262335134280022,3.453130014542094,4.83103940761674,55272,0,1482,,,8.48
a0000086,"    86 Semele",3.112890402129213,.2119363246131271,4.814721388476741,86.20385824387348,308.809591541693,2.453155851378468,3.772624952879958,5.49229616406421,52675,0,1755,,,8.54
a0000090,"    90 Antiope",3.14868452281926,.1652257618335077,2.207200322781824,69.973680322989,244.8748199826954,2.628440723763073,3.668928321875447,5.5872991731314,54589,0,3031,,,8.27
a0000095,"    95 Arethusa",3.064202218457333,.1524848344805271,12.99638602600286,243.0390401288359,154.2476721787562,2.596957850361002,3.531446586553663,5.36394524900763,52405,0,1394,,,8.0
a0000099,"    99 Dike",2.665585278220609,.1950621765001437,13.84782864550632,41.53156478742655,195.3805259541522,2.145630412204156,3.185540144237062,4.35208204469583,36949,0,1515,,,9.43
a0000104,"   104 Klymene",3.152831703762783,.1568376501267921,2.789040152049839,41.73037260453241,32.16660613338856,2.658348988099378,3.647314419426188,5.59834148399784,47664,0,1812,,,8.27
a0000105,"   105 Artemis",2.373080089129501,.1777828069585818,21.44428313018018,188.2645754551885,57.10604894128024,1.951187249746537,2.794972928512466,3.65575258266402,36784,0,1631,2,0,8.57
a0000107,"   107 Camilla",3.488507310794644,.06636795166129213,10.00265193109303,172.6120081363078,306.8967630503477,3.256982226221761,3.720032395367527,6.51579869642999,53790,0,2071,,,7.08
a0000111,"   111 Ate",2.593108017685789,.103483482412668,4.932208085991648,305.7555086751689,166.4155666342231,2.324764169743453,2.861451865628124,4.17579446438585,53168,0,1776,,,8.02
a0000120,"   120 Lachesis",3.117395333949419,.05251656425222995,6.964262428074182,341.1942791082852,232.6831614408467,2.953680441594463,3.281110226304376,5.50422303882775,52485,0,1440,,,7.75
a0000121,"   121 Hermione",3.448269965038122,.13376879061455,7.596851116238958,73.13141687047172,298.315418625879,2.986999062102496,3.909540867973748,6.40339203353073,52513,0,2250,,,7.31
a0000128,"   128 Nemesis",2.750730383911221,.1263372522883922,6.243400462052167,76.26413034385818,303.8135895616924,2.403210665421683,3.098250102400759,4.56226217834602,52340,0,1642,,,7.49
a0000134,"   134 Sophrosyne",2.562619797474603,.1171097694247262,11.60181179916795,345.9865699110895,84.76016099734261,2.262511983869114,2.862727611080092,4.10236660050502,50585,0,1339,,,8.76
a0000137,"   137 Meliboea",3.121234377931236,.2157125412449162,13.41220993709162,202.3052273499069,107.1392259426225,2.447944978446694,3.794523777415778,5.51439376937871,47813,0,1604,,,8.05
a0000143,"   143 Adria",2.760801532723318,.07409421170198636,11.44859231616882,333.0716839517037,253.310831546858,2.556242119490548,2.965360945956087,4.58734056417052,49633,0,1593,,,9.12
a0000144,"   144 Vibilia",2.655461659311294,.2346822292342594,4.80656661913965,76.42306091975625,293.526580753553,2.032271997458014,3.278651321164574,4.32731245964025,40472,0,1558,,,7.91
a0000145,"   145 Adeona",2.673284521084162,.1445849049462683,12.63431227335372,77.42779826348313,44.00737063210769,2.286767932708878,3.059801109459445,4.37095140207139,47548,0,1130,,,8.13
a0000146,"   146 Lucina",2.71835933809102,.06661305737170982,13.09352892545271,83.97310140682092,146.9588364091638,2.53728111154584,2.899437564636201,4.48196540680901,47610,0,1456,,,8.20
a0000147,"   147 Protogeneia",3.135737706058896,.02808428622282941,1.930586413672994,248.357316765515,101.0734398819555,3.04767275080222,3.223802661315573,5.55287368824088,48222,0,1979,,,8.8
a0000156,"   156 Xanthippe",2.727009764846195,.2272520991818396,9.778465149215814,241.8440737947589,338.4190103305922,2.107291071295522,3.346728458396867,4.50337634079493,41821,0,1975,,,8.64
a0000159,"   159 Aemilia",3.102787331607434,.1079556668412284,6.131183746459617,134.1311996356557,333.3911025382921,2.767823856157237,3.43775080705763,5.46557951137003,40969,0,1720,,,8.12
a0000163,"   163 Erigone",2.367339461299942,.1907525072302463,4.814820070886951,160.1660156233327,298.2668612843045,1.915763523591877,2.818915399008006,3.64249537011405,44925,0,1750,,,9.47
a0000168,"   168 Sibylla",3.384512295214966,.069567731574988,4.646465549297282,206.0615827437706,173.1450195276416,3.149059452349205,3.619965138080727,6.22661977330981,49646,0,1810,,,7.94
a0000171,"   171 Ophelia",3.130566851279783,.13195799598014,2.546594529571005,100.538044332612,56.97956620966411,2.717463523303046,3.54367017925652,5.53914425715308,44579,0,1956,,,8.31
a0000173,"   173 Ino",2.747210417928601,.2063848454707867,14.21039989224108,148.2661664909016,228.4159157795852,2.180227820348672,3.314193015508531,4.55350784756849,50095,0,1564,,,7.66
a0000175,"   175 Andromache",3.185516724037686,.2326755729268246,3.218402517644487,21.35334464184917,320.4423122717095,2.444324795204236,3.926708652871135,5.68562270149088,50472,0,1985,,,8.31
a0000185,"   185 Eunike",2.737939912124121,.1292805419370472,23.2381636749252,153.8396365615443,224.0770722242136,2.383977556493643,3.0919022677546,4.53047847481693,47937,0,2147,,,7.62
a0000187,"   187 Lamberta",2.727976676337547,.2410764870199128,10.58797074693715,21.7053889545645,196.9126064145344,2.070325642533834,3.385627710141261,4.50577168551315,41424,0,1622,,,8.16
a0000194,"   194 Prokne",2.61572773227995,.2380473218514896,18.50946036037875,159.3158592545078,163.2568299282169,1.993060750918038,3.238394713641862,4.23055170753099,49950,0,1701,,,7.68
a0000195,"   195 Eurykleia",2.877229438774003,.04427868766317106,6.971792904339842,6.993242138104348,119.4896428498754,2.749829495119248,3.004629382428758,4.88056324598499,48177,0,1905,,,9.01
a0000200,"   200 Dynamene",2.737838872501801,.1333442364102594,6.895846481975945,324.5768594374867,85.09437980721641,2.372763838633723,3.10291390636988,4.53022769122116,49845,0,1525,,,8.26
a0000205,"   205 Martha",2.778509950778206,.03502503517563579,10.69114793017057,211.7967378682218,177.2700043509727,2.681192542016345,2.875827359540067,4.63154765522388,49828,0,1575,,,9.23
a0000206,"   206 Hersilia",2.74101962421247,.03753230816543662,3.778695654324323,145.170462553125,299.5896913372865,2.638142830989018,2.843896417435921,4.5381246390491,49798,0,1739,,,8.68
a0000207,"   207 Hedda",2.284088996342086,.02907253752715939,3.803511994781855,29.21258919045665,192.8092453304069,2.217684733280559,2.350493259403613,3.45205522355578,48769,0,1747,,,9.92
a0000209,"   209 Dido",3.151139902601866,.0584422725259309,7.173110840120779,.6843908351360546,248.2863602354657,2.966980125646672,3.335299679557059,5.59383600566981,49817,0,1719,,,8.24
a0000211,"   211 Isolda",3.041560905984729,.1614435077051523,3.886185765603151,263.651038600279,173.5549157951239,2.550520644423693,3.532601167545765,5.30460412217074,49533,0,1514,,,7.89
a0000232,"   232 Russia",2.553017474464528,.1745253768979379,6.065984780692011,152.2520447163881,52.13180970534184,2.107451137506585,2.998583811422472,4.07933041420179,37382,0,1553,,,10.25
